STARLINK-4756           
1 53826U 22114J   22270.91668981 -.01350775  00000+0 -91055-2 0  9996
2 53826  53.2171 214.9003 0005105 270.0639 283.9938 15.77026831  1971
STARLINK-4764           
1 53827U 22114K   22270.91668981 -.01033253  00000+0 -69870-2 0  9996
2 53827  53.2171 214.9022 0001072  50.3035 142.3575 15.76742147  1307
STARLINK-4760           
1 53828U 22114L   22270.91668981 -.01181862  00000+0 -80299-2 0  9995
2 53828  53.2170 214.8991 0005042 268.6245 285.9971 15.76930165  1975
STARLINK-4759           
1 53829U 22114M   22270.91668981 -.00941849  00000+0 -64318-2 0  9998
2 53829  53.2173 214.9023 0001099  79.3258 113.8832 15.76695421  1973
STARLINK-4761           
1 53830U 22114N   22270.91668981 -.01232924  00000+0 -83885-2 0  9998
2 53830  53.2171 214.8972 0006050 269.4561 286.1651 15.77000848  1300
STARLINK-4649           
1 53831U 22114P   22270.91668981 -.01197160  00000+0 -81482-2 0  9992
2 53831  53.2171 214.9010 0006388 269.1758 284.4350 15.76903177  1970
STARLINK-4747           
1 53832U 22114Q   22270.91668981 -.01362596  00000+0 -91512-2 0  9995
2 53832  53.2170 214.8953 0005792 270.3325 286.2539 15.77121123  1970
STARLINK-4771           
1 53833U 22114R   22270.91668981 -.01173999  00000+0 -79678-2 0  9992
2 53833  53.2170 214.8976 0004890 267.8715 287.2670 15.76938608  1978
STARLINK-4737           
1 53834U 22114S   22270.91668981 -.01363374  00000+0 -91424-2 0  9994
2 53834  53.2171 214.8934 0005752 270.3173 287.2729 15.77157422  1972
STARLINK-4783           
1 53835U 22114T   22270.91668981 -.01354677  00000+0 -91052-2 0  9998
2 53835  53.2170 214.8958 0005168 270.3931 285.6922 15.77098411  1970
STARLINK-4778           
1 53836U 22114U   22270.91668981 -.01165404  00000+0 -78572-2 0  9999
2 53836  53.2170 214.8909 0005896 269.7546 288.9210 15.77049771  1970
STARLINK-4776           
1 53837U 22114V   22270.91668981 -.01309785  00000+0 -87768-2 0  9999
2 53837  53.2171 214.8943 0003565 282.3777 274.7230 15.77101742  1970
STARLINK-4773           
1 53838U 22114W   22270.91668981 -.01130038  00000+0 -75940-2 0  9992
2 53838  53.2171 214.8905 0005899 269.2015 289.9886 15.77041045  1301
STARLINK-4784           
1 53839U 22114X   22270.91668981 -.01122125  00000+0 -75482-2 0  9992
2 53839  53.2171 214.8922 0006176 269.6577 288.5369 15.76996428  1974
STARLINK-4766           
1 53840U 22114Y   22270.91668981 -.01115269  00000+0 -74732-2 0  9992
2 53840  53.2169 214.8871 0005198 269.1446 291.5565 15.77082899  1970
STARLINK-4750           
1 53841U 22114Z   22270.91668981 -.01220809  00000+0 -82464-2 0  9991
2 53841  53.2170 214.8890 0005895 269.2620 290.3786 15.77135761  1309
STARLINK-4754           
1 53842U 22114AA  22270.91668981 -.01137711  00000+0 -76188-2 0  9997
2 53842  53.2170 214.8851 0005992 269.5517 292.1396 15.77135085  1972
STARLINK-4769           
1 53843U 22114AB  22270.91668981 -.01181472  00000+0 -79556-2 0  9993
2 53843  53.2170 214.8875 0005733 269.3978 290.7743 15.77117390  1970
STARLINK-4745           
1 53844U 22114AC  22270.91668981 -.01139868  00000+0 -76227-2 0  9998
2 53844  53.2170 214.8833 0006098 269.8211 292.8736 15.77168929  1974
STARLINK-4753           
1 53845U 22114AD  22270.91668981 -.01112169  00000+0 -74404-2 0  9999
2 53845  53.2171 214.8863 0006122 269.6519 291.5532 15.77096571  1979
STARLINK-4746           
1 53846U 22114AE  22270.91668981 -.01322701  00000+0 -87769-2 0  9993
2 53846  53.2171 214.8818 0004282 270.0726 293.5523 15.77335034  1973
STARLINK-4777           
1 53847U 22114AF  22270.91668981 -.01140126  00000+0 -76321-2 0  9995
2 53847  53.2169 214.8838 0005721 269.5181 292.6770 15.77153584  1972
STARLINK-4780           
1 53848U 22114AG  22270.91668981 -.01338111  00000+0 -88643-2 0  9999
2 53848  53.2169 214.8794 0005671 269.1863 295.4289 15.77380454  1975
STARLINK-4770           
1 53849U 22114AH  22270.91668981 -.01182153  00000+0 -79252-2 0  9999
2 53849  53.2171 214.8825 0005431 269.4094 293.7640 15.77222052  1978
STARLINK-4767           
1 53850U 22114AJ  22270.91668981 -.01338746  00000+0 -88439-2 0  9999
2 53850  53.2169 214.8765 0006253 269.7335 296.3721 15.77433331  1977
STARLINK-4755           
1 53851U 22114AK  22270.91668981 -.01278706  00000+0 -86145-2 0  9991
2 53851  53.2170 214.8803 0005524 268.9764 295.1545 15.77337143  1975
STARLINK-4797           
1 53852U 22114AL  22270.91668981 -.01351733  00000+0 -89237-2 0  9999
2 53852  53.2170 214.8747 0005946 269.6051 297.4874 15.77478726  1971
STARLINK-4794           
1 53853U 22114AM  22270.91668981 -.01202561  00000+0 -80433-2 0  9993
2 53853  53.2172 214.8786 0005973 268.8784 296.2717 15.77311455  1306
STARLINK-4800           
1 53854U 22114AN  22270.91668981 -.01234132  00000+0 -82400-2 0  9999
2 53854  53.2171 214.8729 0004987 268.1071 300.0128 15.77440581  1975
STARLINK-4703           
1 53855U 22114AP  22271.07061244  .00016181  00000+0  10000-3 0  9994
2 53855  53.1927 214.0641 0009620 306.5142  53.5533 15.77284096  1993
STARLINK-4795           
1 53856U 22114AQ  22270.91668981 -.01292168  00000+0 -86259-2 0  9990
2 53856  53.2169 214.8673 0005442 268.8884 301.6842 15.77573003  1974
STARLINK-4809           
1 53857U 22114AR  22270.91668981 -.01123218  00000+0 -74581-2 0  9995
2 53857  53.2169 214.8751 0005715 269.2120 297.4746 15.77295654  1971
STARLINK-4798           
1 53858U 22114AS  22270.91668981 -.01172222  00000+0 -77859-2 0  9996
2 53858  53.2170 214.8717 0005528 269.5076 299.1467 15.77403979  1971
STARLINK-4790           
1 53859U 22114AT  22270.91668981 -.01239734  00000+0 -82874-2 0  9992
2 53859  53.2169 214.8730 0004976 268.1816 299.4426 15.77427102  1970
STARLINK-4799           
1 53860U 22114AU  22270.91668981 -.01332149  00000+0 -87467-2 0  9991
2 53860  53.2169 214.8685 0005554 269.7707 300.2981 15.77568036  1979
STARLINK-4781           
1 53861U 22114AV  22270.91668981 -.01194245  00000+0 -79360-2 0  9998
2 53861  53.2169 214.8701 0005538 268.9257 300.2069 15.77443820  1972
STARLINK-4792           
1 53862U 22114AW  22270.91668981 -.01369224  00000+0 -89891-2 0  9990
2 53862  53.2170 214.8669 0006122 269.6809 301.3537 15.77632633  1300
STARLINK-4788           
1 53863U 22114AX  22270.91668981 -.01368503  00000+0 -90034-2 0  9991
2 53863  53.2169 214.8691 0006439 270.1696 299.3919 15.77578689  1979
STARLINK-4779           
1 53864U 22114AY  22270.91668981 -.01366706  00000+0 -89585-2 0  9994
2 53864  53.2169 214.8647 0006083 269.6751 302.3587 15.77663171  1978
STARLINK-4785           
1 53865U 22114AZ  22270.91668981 -.01226791  00000+0 -81343-2 0  9998
2 53865  53.2169 214.8653 0006343 269.2716 302.3135 15.77553545  1301
STARLINK-4762           
1 53866U 22114BA  22270.91668981 -.01143882  00000+0 -75194-2 0  9995
2 53866  53.2169 214.8617 0006109 269.0249 304.5612 15.77558824  1973
STARLINK-4793           
1 53867U 22114BB  22270.91668981 -.01160339  00000+0 -76472-2 0  9992
2 53867  53.2169 214.8630 0006229 269.1125 303.4815 15.77537280  1972
STARLINK-4789           
1 53868U 22114BC  22270.91668981 -.00708665  00000+0 -45914-2 0  9999
2 53868  53.2167 214.8609 0001333 109.7008 104.5579 15.77243002  1970
STARLINK-4810           
1 53869U 22114BD  22270.91668981 -.01211594  00000+0 -80049-2 0  9999
2 53869  53.2170 214.8623 0006492 269.6846 303.3761 15.77594769  1306
STARLINK-4732           
1 53870U 22114BE  22270.91668981 -.01146919  00000+0 -75311-2 0  9995
2 53870  53.2170 214.8600 0005765 268.5853 305.9813 15.77595962  1303
STARLINK-4740           
1 53871U 22114BF  22270.91668981 -.01170924  00000+0 -76933-2 0  9990
2 53871  53.2169 214.8583 0006172 268.9870 306.0692 15.77630449  1305
FALCON 9 DEB            
1 53872U 22114BG  22270.81540567  .01108124  11495-4  11094-2 0  9992
2 53872  53.2175 214.6212 0060782  79.0153 281.7711 16.06390383  2510
FALCON 9 DEB            
1 53873U 22114BH  22270.87513916  .00925130  11502-4  93101-3 0  9999
2 53873  53.2142 214.2767 0056163  80.8533 279.8850 16.06879588  2528
FALCON 9 DEB            
1 53874U 22114BJ  22270.86888798  .00916781  11537-4  85755-3 0  9998
2 53874  53.2144 214.2276 0054108  75.2376 285.4646 16.08158512  2521
FALCON 9 DEB            
1 53875U 22114BK  22270.86779000  .00989840  11545-4  90182-3 0  9999
2 53875  53.2160 214.2204 0054418  77.1392 283.5715 16.08489465  2524
CHUANGXIN 16B (CX-16B)  
1 53876U 22102B   22270.88838050  .00003213  00000+0  29828-3 0  9999
2 53876  28.9976 138.7183 0004800 259.5853 100.4202 14.91791122  1212
2022-115A               
1 53877U 22115A   22271.05079587 -.00072416  00000+0 -26880-1 0  9992
2 53877  98.4947 269.6438 0001381 137.5388 222.6425 14.32719774  1020
CZ-2D R/B               
1 53878U 22115B   22270.96756284  .00000712  00000+0  12031-3 0  9991
2 53878  98.5448 270.0054 0124599  21.3256 339.3076 14.67928330  1036
SOYUZ-MS 22             
1 53879U 22116A   22270.52893583  .00010365  00000+0  18723-3 0  9998
2 53879  51.6443 189.5440 0002401 301.1062 224.7991 15.50321764361051
2022-118A               
1 53884U 22118A   22270.96552036  .00003820  00000+0  16600-3 0  9999
2 53884  97.5201 277.4753 0013496 249.1218 170.7020 15.22830233   465
2022-118B               
1 53885U 22118B   22270.96352029  .00004453  00000+0  18956-3 0  9999
2 53885  97.5198 277.4766 0010799 257.7273 158.0027 15.23471852   458
2022-118C               
1 53942U 22118C   22270.94786198  .00043665  24295-5  54191-3 0  9996
2 53942  97.5255 277.4026 0276220 354.7144   5.1200 15.26097078   455
2022-120A               
1 53943U 22120A   22270.87385247 -.00000038  00000+0  00000+0 0  9998
2 53943  34.9968 177.2185 0009656 285.9496 154.2792 15.24509987   207
2022-120B               
1 53944U 22120B   22270.94295574 -.00000038  00000+0  00000+0 0  9990
2 53944  34.9965 176.7850 0010611 286.8198 173.5834 15.24574424   210
